[{"OBJECT_NAME":"HULIANWANG DIGUI-95","OBJECT_ID":"2025-231J","EPOCH":"2026-03-09T19:04:47.116992","MEAN_MOTION":13.29326178,"ECCENTRICITY":6.342e-5,"INCLINATION":50.0027,"RA_OF_ASC_NODE":171.8783,"ARG_OF_PERICENTER":206.4041,"MEAN_ANOMALY":153.6799,"EPHEMERIS_TYPE":0,"CLASSIFICATION_TYPE":"U","NORAD_CAT_ID":66003,"ELEMENT_SET_NO":999,"REV_AT_EPOCH":1967,"BSTAR":0.00013419199,"MEAN_MOTION_DOT":-6.2e-7,"MEAN_MOTION_DDOT":0},{"OBJECT_NAME":"DELTA 1 DEB","OBJECT_ID":"1975-052BE","EPOCH":"2026-03-09T16:29:51.423072","MEAN_MOTION":13.36655727,"ECCENTRICITY":0.01731198,"INCLINATION":99.1993,"RA_OF_ASC_NODE":332.1577,"ARG_OF_PERICENTER":126.5162,"MEAN_ANOMALY":290.9041,"EPHEMERIS_TYPE":0,"CLASSIFICATION_TYPE":"U","NORAD_CAT_ID":21336,"ELEMENT_SET_NO":999,"REV_AT_EPOCH":67780,"BSTAR":0.0054042023,"MEAN_MOTION_DOT":3.008e-5,"MEAN_MOTION_DDOT":0}]
